{"type": "FeatureCollection", "features": [ {"type": "Feature", "properties": {"norad_id": 40534, "name": "GPS BIIF-9  (PRN 26)", "group": "gps-ops", "lat": -18.967127861621595, "lon": 47.20130120120202, "alt_km": 20459.26428693927, "timestamp": "2025-12-02T21:34:01.530061+00:00", "meta": {"OBJECT_NAME": "GPS BIIF-9  (PRN 26)", "OBJECT_ID": "2015-013A", "EPOCH": "2025-12-01T02:55:38.238240", "MEAN_MOTION": 2.00563184, "ECCENTRICITY": 0.01065399, "INCLINATION": 53.1998, "RA_OF_ASC_NODE": 212.3715, "ARG_OF_PERICENTER": 38.192, "MEAN_ANOMALY": 322.6465, "EPHEMERIS_TYPE": 0, "CLASSIFICATION_TYPE": "U", "NORAD_CAT_ID": 40534, "ELEMENT_SET_NO": 999, "REV_AT_EPOCH": 7785, "BSTAR": 0, "MEAN_MOTION_DOT": 6.6e-07, "MEAN_MOTION_DDOT": 0}, "tle": {"line1": "1 40534U 15013A   25335.12197035  .00000066  00000+0  00000+0 0  9992", "line2": "2 40534  53.1998 212.3715 0106539  38.1920 322.6465  2.00563184 77855"}}, "geometry": {"type": "Point", "coordinates": [47.20130120120202, -18.967127861621595]}}, {"type": "Feature", "properties": {"norad_id": 40730, "name": "GPS BIIF-10 (PRN 08)", "group": "gps-ops", "lat": 54.10920930651291, "lon": 1.7875618218531175, "alt_km": 20033.646094597843, "timestamp": "2025-12-02T21:34:01.530084+00:00", "meta": {"OBJECT_NAME": "GPS BIIF-10 (PRN 08)", "OBJECT_ID": "2015-033A", "EPOCH": "2025-12-02T06:43:54.108768", "MEAN_MOTION": 2.00566042, "ECCENTRICITY": 0.0110309, "INCLINATION": 54.1399, "RA_OF_ASC_NODE": 275.2033, "ARG_OF_PERICENTER": 26.5495, "MEAN_ANOMALY": 334.0087, "EPHEMERIS_TYPE": 0, "CLASSIFICATION_TYPE": "U", "NORAD_CAT_ID": 40730, "ELEMENT_SET_NO": 999, "REV_AT_EPOCH": 7604, "BSTAR": 0, "MEAN_MOTION_DOT": -3.8e-07, "MEAN_MOTION_DDOT": 0}, "tle": {"line1": "1 40730U 15033A   25336.28048737 -.00000038  00000+0  00000+0 0  9994", "line2": "2 40730  54.1399 275.2033 0110309  26.5495 334.0087  2.00566042 76041"}}, "geometry": {"type": "Point", "coordinates": [1.7875618218531175, 54.10920930651291]}}, {"type": "Feature", "properties": {"norad_id": 41019, "name": "GPS BIIF-11 (PRN 10)", "group": "gps-ops", "lat": 34.56266704653772, "lon": 65.15095597605787, "alt_km": 20469.56314149449, "timestamp": "2025-12-02T21:34:01.530098+00:00", "meta": {"OBJECT_NAME": "GPS BIIF-11 (PRN 10)", "OBJECT_ID": "2015-062A", "EPOCH": "2025-12-01T08:13:28.844544", "MEAN_MOTION": 2.00567003, "ECCENTRICITY": 0.01104814, "INCLINATION": 56.824, "RA_OF_ASC_NODE": 38.4433, "ARG_OF_PERICENTER": 229.6355, "MEAN_ANOMALY": 129.443, "EPHEMERIS_TYPE": 0, "CLASSIFICATION_TYPE": "U", "NORAD_CAT_ID": 41019, "ELEMENT_SET_NO": 999, "REV_AT_EPOCH": 7386, "BSTAR": 0, "MEAN_MOTION_DOT": -6.4e-07, "MEAN_MOTION_DDOT": 0}, "tle": {"line1": "1 41019U 15062A   25335.34269496 -.00000064  00000+0  00000+0 0  9999", "line2": "2 41019  56.8240  38.4433 0110481 229.6355 129.4430  2.00567003 73864"}}, "geometry": {"type": "Point", "coordinates": [65.15095597605787, 34.56266704653772]}}, {"type": "Feature", "properties": {"norad_id": 41328, "name": "GPS BIIF-12 (PRN 32)", "group": "gps-ops", "lat": -12.99248433799842, "lon": 88.07494101617458, "alt_km": 20228.142461052117, "timestamp": "2025-12-02T21:34:01.530110+00:00", "meta": {"OBJECT_NAME": "GPS BIIF-12 (PRN 32)", "OBJECT_ID": "2016-007A", "EPOCH": "2025-11-30T22:13:59.162880", "MEAN_MOTION": 2.00561199, "ECCENTRICITY": 0.00916001, "INCLINATION": 55.3993, "RA_OF_ASC_NODE": 97.326, "ARG_OF_PERICENTER": 243.286, "MEAN_ANOMALY": 115.7578, "EPHEMERIS_TYPE": 0, "CLASSIFICATION_TYPE": "U", "NORAD_CAT_ID": 41328, "ELEMENT_SET_NO": 999, "REV_AT_EPOCH": 7186, "BSTAR": 0, "MEAN_MOTION_DOT": 2.3e-07, "MEAN_MOTION_DDOT": 0}, "tle": {"line1": "1 41328U 16007A   25334.92637920  .00000023  00000+0  00000+0 0  9990", "line2": "2 41328  55.3993  97.3260 0091600 243.2860 115.7578  2.00561199 71861"}}, "geometry": {"type": "Point", "coordinates": [88.07494101617458, -12.99248433799842]}}, {"type": "Feature", "properties": {"norad_id": 43873, "name": "GPS BIII-1  (PRN 04)", "group": "gps-ops", "lat": -44.60185028125383, "lon": -37.532879927645475, "alt_km": 20116.9673164341, "timestamp": "2025-12-02T21:34:01.530121+00:00", "meta": {"OBJECT_NAME": "GPS BIII-1  (PRN 04)", "OBJECT_ID": "2018-109A", "EPOCH": "2025-12-01T14:03:36.800640", "MEAN_MOTION": 2.00553137, "ECCENTRICITY": 0.00371823, "INCLINATION": 55.5605, "RA_OF_ASC_NODE": 99.9877, "ARG_OF_PERICENTER": 194.4831, "MEAN_ANOMALY": 175.6663, "EPHEMERIS_TYPE": 0, "CLASSIFICATION_TYPE": "U", "NORAD_CAT_ID": 43873, "ELEMENT_SET_NO": 999, "REV_AT_EPOCH": 5111, "BSTAR": 0, "MEAN_MOTION_DOT": 2.2e-07, "MEAN_MOTION_DDOT": 0}, "tle": {"line1": "1 43873U 18109A   25335.58584260  .00000022  00000+0  00000+0 0  9992", "line2": "2 43873  55.5605  99.9877 0037182 194.4831 175.6663  2.00553137 51111"}}, "geometry": {"type": "Point", "coordinates": [-37.532879927645475, -44.60185028125383]}}, {"type": "Feature", "properties": {"norad_id": 44506, "name": "GPS BIII-2  (PRN 18)", "group": "gps-ops", "lat": 36.47839152043555, "lon": 128.662401598907, "alt_km": 20111.014973137444, "timestamp": "2025-12-02T21:34:01.530134+00:00", "meta": {"OBJECT_NAME": "GPS BIII-2  (PRN 18)", "OBJECT_ID": "2019-056A", "EPOCH": "2025-12-02T10:49:28.763904", "MEAN_MOTION": 2.00565569, "ECCENTRICITY": 0.0057816, "INCLINATION": 55.7251, "RA_OF_ASC_NODE": 338.9617, "ARG_OF_PERICENTER": 198.402, "MEAN_ANOMALY": 332.9603, "EPHEMERIS_TYPE": 0, "CLASSIFICATION_TYPE": "U", "NORAD_CAT_ID": 44506, "ELEMENT_SET_NO": 999, "REV_AT_EPOCH": 4612, "BSTAR": 0, "MEAN_MOTION_DOT": -6.1e-07, "MEAN_MOTION_DDOT": 0}, "tle": {"line1": "1 44506U 19056A   25336.45102736 -.00000061  00000+0  00000+0 0  9993", "line2": "2 44506  55.7251 338.9617 0057816 198.4020 332.9603  2.00565569 46121"}}, "geometry": {"type": "Point", "coordinates": [128.662401598907, 36.47839152043555]}}, {"type": "Feature", "properties": {"norad_id": 45854, "name": "GPS BIII-3  (PRN 23)", "group": "gps-ops", "lat": 54.75910440143577, "lon": 105.8130505176084, "alt_km": 20266.991258377206, "timestamp": "2025-12-02T21:34:01.530145+00:00", "meta": {"OBJECT_NAME": "GPS BIII-3  (PRN 23)", "OBJECT_ID": "2020-041A", "EPOCH": "2025-12-02T12:43:29.980704", "MEAN_MOTION": 2.00561721, "ECCENTRICITY": 0.0060247, "INCLINATION": 56.5397, "RA_OF_ASC_NODE": 36.584, "ARG_OF_PERICENTER": 202.9657, "MEAN_ANOMALY": 329.812, "EPHEMERIS_TYPE": 0, "CLASSIFICATION_TYPE": "U", "NORAD_CAT_ID": 45854, "ELEMENT_SET_NO": 999, "REV_AT_EPOCH": 4009, "BSTAR": 0, "MEAN_MOTION_DOT": -6.6e-07, "MEAN_MOTION_DDOT": 0}, "tle": {"line1": "1 45854U 20041A   25336.53020811 -.00000066  00000+0  00000+0 0  9993", "line2": "2 45854  56.5397  36.5840 0060247 202.9657 329.8120  2.00561721 40091"}}, "geometry": {"type": "Point", "coordinates": [105.8130505176084, 54.75910440143577]}}, {"type": "Feature", "properties": {"norad_id": 46826, "name": "GPS BIII-4  (PRN 14)", "group": "gps-ops", "lat": 37.72220724148455, "lon": -107.10564595933977, "alt_km": 20331.463078974346, "timestamp": "2025-12-02T21:34:01.530156+00:00", "meta": {"OBJECT_NAME": "GPS BIII-4  (PRN 14)", "OBJECT_ID": "2020-078A", "EPOCH": "2025-11-12T03:01:29.190720", "MEAN_MOTION": 2.00567032, "ECCENTRICITY": 0.0063911, "INCLINATION": 54.0223, "RA_OF_ASC_NODE": 219.5836, "ARG_OF_PERICENTER": 203.4985, "MEAN_ANOMALY": 326.7754, "EPHEMERIS_TYPE": 0, "CLASSIFICATION_TYPE": "U", "NORAD_CAT_ID": 46826, "ELEMENT_SET_NO": 999, "REV_AT_EPOCH": 3715, "BSTAR": 0, "MEAN_MOTION_DOT": -3.4e-07, "MEAN_MOTION_DDOT": 0}, "tle": {"line1": "1 46826U 20078A   25316.12603230 -.00000034  00000+0  00000+0 0  9993", "line2": "2 46826  54.0223 219.5836 0063911 203.4985 326.7754  2.00567032 37154"}}, "geometry": {"type": "Point", "coordinates": [-107.10564595933977, 37.72220724148455]}}, {"type": "Feature", "properties": {"norad_id": 48859, "name": "GPS BIII-5  (PRN 11)", "group": "gps-ops", "lat": -42.55167237316762, "lon": -160.07571493471647, "alt_km": 20122.528891136044, "timestamp": "2025-12-02T21:34:01.530168+00:00", "meta": {"OBJECT_NAME": "GPS BIII-5  (PRN 11)", "OBJECT_ID": "2021-054A", "EPOCH": "2025-11-30T17:12:22.003776", "MEAN_MOTION": 2.00553931, "ECCENTRICITY": 0.00246504, "INCLINATION": 55.2605, "RA_OF_ASC_NODE": 340.4377, "ARG_OF_PERICENTER": 232.9586, "MEAN_ANOMALY": 227.195, "EPHEMERIS_TYPE": 0, "CLASSIFICATION_TYPE": "U", "NORAD_CAT_ID": 48859, "ELEMENT_SET_NO": 999, "REV_AT_EPOCH": 3277, "BSTAR": 0, "MEAN_MOTION_DOT": -5.5e-07, "MEAN_MOTION_DDOT": 0}, "tle": {"line1": "1 48859U 21054A   25334.71692134 -.00000055  00000+0  00000+0 0  9995", "line2": "2 48859  55.2605 340.4377 0024650 232.9586 227.1950  2.00553931 32772"}}, "geometry": {"type": "Point", "coordinates": [-160.07571493471647, -42.55167237316762]}}, {"type": "Feature", "properties": {"norad_id": 55268, "name": "GPS BIII-6  (PRN 28)", "group": "gps-ops", "lat": -54.35805410506534, "lon": 79.35502846168868, "alt_km": 20187.38604138504, "timestamp": "2025-12-02T21:34:01.530183+00:00", "meta": {"OBJECT_NAME": "GPS BIII-6  (PRN 28)", "OBJECT_ID": "2023-009A", "EPOCH": "2025-11-30T00:32:38.315616", "MEAN_MOTION": 2.00556632, "ECCENTRICITY": 0.00034826, "INCLINATION": 55.1054, "RA_OF_ASC_NODE": 156.3454, "ARG_OF_PERICENTER": 359.6796, "MEAN_ANOMALY": 1.4566, "EPHEMERIS_TYPE": 0, "CLASSIFICATION_TYPE": "U", "NORAD_CAT_ID": 55268, "ELEMENT_SET_NO": 999, "REV_AT_EPOCH": 2125, "BSTAR": 0, "MEAN_MOTION_DOT": 1.29e-06, "MEAN_MOTION_DDOT": 0}, "tle": {"line1": "1 55268U 23009A   25334.02266569  .00000129  00000+0  00000+0 0  9993", "line2": "2 55268  55.1054 156.3454 0003482 359.6796   1.4566  2.00556632 21259"}}, "geometry": {"type": "Point", "coordinates": [79.35502846168868, -54.35805410506534]}}]}